[{"OBJECT_NAME":"STARLINK-5567","OBJECT_ID":"2023-013AY","EPOCH":"2026-03-09T02:02:37.993344","MEAN_MOTION":15.02535584,"ECCENTRICITY":0.00012696,"INCLINATION":43.0046,"RA_OF_ASC_NODE":316.1619,"ARG_OF_PERICENTER":267.8735,"MEAN_ANOMALY":92.1962,"EPHEMERIS_TYPE":0,"CLASSIFICATION_TYPE":"U","NORAD_CAT_ID":55377,"ELEMENT_SET_NO":999,"REV_AT_EPOCH":17147,"BSTAR":-4.436112e-6,"MEAN_MOTION_DOT":-2.64e-6,"MEAN_MOTION_DDOT":0},{"OBJECT_NAME":"CZ-6A DEB","OBJECT_ID":"2022-151WD","EPOCH":"2026-03-09T18:15:50.585760","MEAN_MOTION":14.95909888,"ECCENTRICITY":0.00406186,"INCLINATION":98.6454,"RA_OF_ASC_NODE":143.7847,"ARG_OF_PERICENTER":193.5421,"MEAN_ANOMALY":166.4711,"EPHEMERIS_TYPE":0,"CLASSIFICATION_TYPE":"U","NORAD_CAT_ID":55212,"ELEMENT_SET_NO":999,"REV_AT_EPOCH":17107,"BSTAR":0.0046813987,"MEAN_MOTION_DOT":0.00053565,"MEAN_MOTION_DDOT":0}]
